STARLINK-5637           
1 55432U 23014AT  24339.60846690  .00000431  00000+0  43884-4 0  9997
2 55432  69.9989 184.4576 0002782 269.5866  90.4974 14.98328258102159
STARLINK-5570           
1 55433U 23014AU  24339.59577899  .00000544  00000+0  53342-4 0  9993
2 55433  69.9987 184.4129 0002577 271.6121  88.4743 14.98330091102151
STARLINK-5621           
1 55434U 23014AV  24339.61664799 -.00000460  00000+0 -30801-4 0  9997
2 55434  69.9981 184.4845 0002881 274.0380  86.0450 14.98322189102151
STARLINK-5626           
1 55435U 23014AW  24339.60830070  .00000079  00000+0  14400-4 0  9995
2 55435  69.9988 184.4572 0002605 270.8657  89.2204 14.98331113102150
STARLINK-5640           
1 55436U 23014AX  24339.62082294  .00000456  00000+0  46024-4 0  9991
2 55436  69.9979 184.4991 0003065 269.4554  90.6254 14.98332908102151
STARLINK-5074           
1 55438U 23014AZ  24339.60365615 -.00000399  00000+0 -25675-4 0  9999
2 55438  69.9986 144.3236 0002915 269.6243  90.4582 14.98328487103147
STARLINK-5634           
1 55439U 23014BA  24339.62499880  .00000023  00000+0  96933-5 0  9992
2 55439  69.9984 184.5152 0002796 270.3750  89.7088 14.98329782102159
APSTAR-6E SPS           
1 55447U 23005C   24339.50864462  .00000044  00000+0  52627-2 0  9992
2 55447  28.6555  51.3280 2285306 335.3684  15.2580  7.60528896 51261
STARLINK-5699           
1 55449U 23015A   24339.22886051  .00000646  00000+0  62875-4 0  9998
2 55449  43.0039 308.4489 0001038 272.2648  87.8075 15.02534307102421
STARLINK-5686           
1 55450U 23015B   24339.23218837  .00000846  00000+0  77674-4 0  9997
2 55450  43.0046 308.4767 0001319 263.5642  96.5050 15.02533693102426
STARLINK-5656           
1 55451U 23015C   24339.29200590  .00000773  00000+0  72289-4 0  9997
2 55451  43.0054 308.0636 0001247 268.0950  91.9749 15.02535954101491
STARLINK-5683           
1 55452U 23015D   24339.22108681  .00000779  00000+0  72741-4 0  9998
2 55452  43.0040 308.3909 0001168 269.7463  90.3245 15.02540468101481
STARLINK-5684           
1 55453U 23015E   24339.21775889  .00000157  00000+0  26715-4 0  9998
2 55453  43.0043 308.3653 0001126 264.8238  95.2475 15.02535795101487
STARLINK-5636           
1 55454U 23015F   24339.21109769  .00002669  00000+0  21259-3 0  9994
2 55454  43.0061 308.3034 0001199 272.3518  87.7187 15.02532943101484
STARLINK-5680           
1 55455U 23015G   24339.29089661  .00001339  00000+0  11421-3 0  9994
2 55455  43.0057 308.0537 0001262 277.9434  82.1265 15.02531804101496
STARLINK-5058           
1 55456U 23015H   24339.21221021  .00000043  00000+0  18245-4 0  9998
2 55456  43.0038 308.3250 0001001 254.4738 105.5994 15.02534961101484
STARLINK-5682           
1 55457U 23015J   24339.21442595  .00001338  00000+0  11409-3 0  9992
2 55457  42.9982 308.3375 0001484 274.6289  85.4384 15.02541635101484
STARLINK-5020           
1 55458U 23015K   24339.59998219  .00000033  00000+0  17487-4 0  9997
2 55458  43.0032 306.0718 0000855 262.1687  97.9058 15.02533152101542
STARLINK-5669           
1 55459U 23015L   24339.20554820  .00000372  00000+0  42562-4 0  9990
2 55459  43.0023 308.2708 0000605 248.3941 111.6837 15.02538382101480
STARLINK-5678           
1 55460U 23015M   24339.60108692  .00000257  00000+0  34085-4 0  9991
2 55460  43.0058 306.0813 0001099 270.9359  89.1358 15.02540686101549
STARLINK-5646           
1 55461U 23015N   24339.60773734 -.00002618  00000+0 -17873-3 0  9997
2 55461  43.0062 306.1291 0001449 266.6423  93.4253 15.02553060101541
STARLINK-5673           
1 55462U 23015P   24339.39054969 -.00000338  00000+0 -99473-5 0  9991
2 55462  43.0053 307.0812 0001185 289.5331  70.5383 15.02544113101516
STARLINK-5677           
1 55463U 23015Q   24339.59554143  .00000707  00000+0  67428-4 0  9995
2 55463  43.0042 306.0380 0000788 268.0227  92.0525 15.02532540101549
STARLINK-5676           
1 55464U 23015R   24339.25092987  .00001595  00000+0  13309-3 0  9996
2 55464  43.0044 307.7513 0001239 265.3230  94.7471 15.02545361101492
STARLINK-5674           
1 55465U 23015S   24339.18779087  .00001973  00000+0  16107-3 0  9991
2 55465  43.0045 308.1391 0001133 260.1361  99.9354 15.02533527101481
STARLINK-5628           
1 55466U 23015T   24338.97170733  .00002128  00000+0  17258-3 0  9992
2 55466  43.0036 309.0954 0001079 270.9306  89.1413 15.02537481101451
STARLINK-5679           
1 55467U 23015U   24339.19445066  .00000307  00000+0  37822-4 0  9999
2 55467  43.0056 308.1879 0001330 260.2426  99.8266 15.02533865101484
STARLINK-5672           
1 55468U 23015V   24339.31520228  .00000641  00000+0  62563-4 0  9999
2 55468  43.0054 307.3738 0001222 268.0162  92.0540 15.02528160101506
STARLINK-5681           
1 55469U 23015W   24339.31851651  .00001160  00000+0  10091-3 0  9992
2 55469  43.0045 307.3993 0000988 272.8095  87.2634 15.02544739101506
STARLINK-5708           
1 55470U 23015X   24339.24425985  .00002334  00000+0  18771-3 0  9990
2 55470  43.0034 307.6999 0001251 265.3887  94.6812 15.02557142101495
