OBJECT_NAME,OBJECT_ID,EPOCH,MEAN_MOTION,ECCENTRICITY,INCLINATION,RA_OF_ASC_NODE,ARG_OF_PERICENTER,MEAN_ANOMALY,EPHEMERIS_TYPE,CLASSIFICATION_TYPE,NORAD_CAT_ID,ELEMENT_SET_NO,REV_AT_EPOCH,BSTAR,MEAN_MOTION_DOT,MEAN_MOTION_DDOT
STARLINK-5637,2023-014AT,2024-12-04T14:36:11.540160,14.98328258,.0002782,69.9989,184.4576,269.5866,90.4974,0,U,55432,999,10215,.43884E-4,.431E-5,0
STARLINK-5570,2023-014AU,2024-12-04T14:17:55.304736,14.98330091,.0002577,69.9987,184.4129,271.6121,88.4743,0,U,55433,999,10215,.53342E-4,.544E-5,0
STARLINK-5621,2023-014AV,2024-12-04T14:47:58.386336,14.98322189,.0002881,69.9981,184.4845,274.0380,86.0450,0,U,55434,999,10215,-.30801E-4,-.46E-5,0
STARLINK-5626,2023-014AW,2024-12-04T14:35:57.180480,14.98331113,.0002605,69.9988,184.4572,270.8657,89.2204,0,U,55435,999,10215,.144E-4,.79E-6,0
STARLINK-5640,2023-014AX,2024-12-04T14:53:59.102016,14.98332908,.0003065,69.9979,184.4991,269.4554,90.6254,0,U,55436,999,10215,.46024E-4,.456E-5,0
STARLINK-5074,2023-014AZ,2024-12-04T14:29:15.891360,14.98328487,.0002915,69.9986,144.3236,269.6243,90.4582,0,U,55438,999,10314,-.25675E-4,-.399E-5,0
STARLINK-5634,2023-014BA,2024-12-04T14:59:59.896320,14.98329782,.0002796,69.9984,184.5152,270.3750,89.7088,0,U,55439,999,10215,.96933E-5,.23E-6,0
APSTAR-6E SPS,2023-005C,2024-12-04T12:12:26.895168,7.60528896,.2285306,28.6555,51.3280,335.3684,15.2580,0,U,55447,999,5126,.52627E-2,.44E-6,0
STARLINK-5699,2023-015A,2024-12-04T05:29:33.548064,15.02534307,.0001038,43.0039,308.4489,272.2648,87.8075,0,U,55449,999,10242,.62875E-4,.646E-5,0
STARLINK-5686,2023-015B,2024-12-04T05:34:21.075168,15.02533693,.0001319,43.0046,308.4767,263.5642,96.5050,0,U,55450,999,10242,.77674E-4,.846E-5,0
STARLINK-5656,2023-015C,2024-12-04T07:00:29.309760,15.02535954,.0001247,43.0054,308.0636,268.0950,91.9749,0,U,55451,999,10149,.72289E-4,.773E-5,0
STARLINK-5683,2023-015D,2024-12-04T05:18:21.900384,15.02540468,.0001168,43.0040,308.3909,269.7463,90.3245,0,U,55452,999,10148,.72741E-4,.779E-5,0
STARLINK-5684,2023-015E,2024-12-04T05:13:34.368096,15.02535795,.0001126,43.0043,308.3653,264.8238,95.2475,0,U,55453,999,10148,.26715E-4,.157E-5,0
STARLINK-5636,2023-015F,2024-12-04T05:03:58.840416,15.02532943,.0001199,43.0061,308.3034,272.3518,87.7187,0,U,55454,999,10148,.21259E-3,.2669E-4,0
STARLINK-5680,2023-015G,2024-12-04T06:58:53.467104,15.02531804,.0001262,43.0057,308.0537,277.9434,82.1265,0,U,55455,999,10149,.11421E-3,.1339E-4,0
STARLINK-5058,2023-015H,2024-12-04T05:05:34.962144,15.02534961,.0001001,43.0038,308.3250,254.4738,105.5994,0,U,55456,999,10148,.18245E-4,.43E-6,0
STARLINK-5682,2023-015J,2024-12-04T05:08:46.402080,15.02541635,.0001484,42.9982,308.3375,274.6289,85.4384,0,U,55457,999,10148,.11409E-3,.1338E-4,0
STARLINK-5020,2023-015K,2024-12-04T14:23:58.461216,15.02533152,.0000855,43.0032,306.0718,262.1687,97.9058,0,U,55458,999,10154,.17487E-4,.33E-6,0
STARLINK-5669,2023-015L,2024-12-04T04:55:59.364480,15.02538382,.0000605,43.0023,308.2708,248.3941,111.6837,0,U,55459,999,10148,.42562E-4,.372E-5,0
STARLINK-5678,2023-015M,2024-12-04T14:25:33.909888,15.02540686,.0001099,43.0058,306.0813,270.9359,89.1358,0,U,55460,999,10154,.34085E-4,.257E-5,0
STARLINK-5646,2023-015N,2024-12-04T14:35:08.506176,15.02553060,.0001449,43.0062,306.1291,266.6423,93.4253,0,U,55461,999,10154,-.17873E-3,-.2618E-4,0
STARLINK-5673,2023-015P,2024-12-04T09:22:23.493216,15.02544113,.0001185,43.0053,307.0812,289.5331,70.5383,0,U,55462,999,10151,-.99473E-5,-.338E-5,0
STARLINK-5677,2023-015Q,2024-12-04T14:17:34.779552,15.02532540,.0000788,43.0042,306.0380,268.0227,92.0525,0,U,55463,999,10154,.67428E-4,.707E-5,0
STARLINK-5676,2023-015R,2024-12-04T06:01:20.340768,15.02545361,.0001239,43.0044,307.7513,265.3230,94.7471,0,U,55464,999,10149,.13309E-3,.1595E-4,0
STARLINK-5674,2023-015S,2024-12-04T04:30:25.131168,15.02533527,.0001133,43.0045,308.1391,260.1361,99.9354,0,U,55465,999,10148,.16107E-3,.1973E-4,0
STARLINK-5628,2023-015T,2024-12-03T23:19:15.513312,15.02537481,.0001079,43.0036,309.0954,270.9306,89.1413,0,U,55466,999,10145,.17258E-3,.2128E-4,0
STARLINK-5679,2023-015U,2024-12-04T04:40:00.537024,15.02533865,.000133,43.0056,308.1879,260.2426,99.8266,0,U,55467,999,10148,.37822E-4,.307E-5,0
STARLINK-5672,2023-015V,2024-12-04T07:33:53.476992,15.02528160,.0001222,43.0054,307.3738,268.0162,92.0540,0,U,55468,999,10150,.62563E-4,.641E-5,0
STARLINK-5681,2023-015W,2024-12-04T07:38:39.826464,15.02544739,.0000988,43.0045,307.3993,272.8095,87.2634,0,U,55469,999,10150,.10091E-3,.116E-4,0
STARLINK-5708,2023-015X,2024-12-04T05:51:44.051040,15.02557142,.0001251,43.0034,307.6999,265.3887,94.6812,0,U,55470,999,10149,.18771E-3,.2334E-4,0
